STARLINK-3658           
1 52107U 22029V   26068.29516422  .00000340  00000+0  39428-4 0  9999
2 52107  53.2175  80.8904 0001314  87.5834 272.5309 15.08841758220721
STRIX-5                 
1 65971U 25229A   26068.48916036  .00006129  00000+0  44900-3 0  9994
2 65971  41.9265 119.8574 0036941 120.2079 240.2413 15.03509399 21964
